start=new Date('2022-05-06T00:00:00.000Z').valueOf();
sats=[{"TLE_LINE1":"1 48354U 21038B   22125.63161488 -.00001591  00000-0 -87886-4 0  9996","ELEMENT_SET_NO":"999","APOAPSIS":"548.386","EPHEMERIS_TYPE":"0","GP_ID":"202804236","SEMIMAJOR_AXIS":"6925.319","BSTAR":"-0.00008788600000","MEAN_MOTION":"15.06409719","CENTER_NAME":"EARTH","MEAN_ELEMENT_THEORY":"SGP4","MEAN_ANOMALY":"310.5222","REV_AT_EPOCH":"5540","SITE":"AFETR","RA_OF_ASC_NODE":"184.6907","NORAD_CAT_ID":"48354","ECCENTRICITY":"0.00017360","MEAN_MOTION_DDOT":"0.0000000000000","EPOCH":"2022-05-05T15:09:31.525632","TIME_SYSTEM":"UTC","CLASSIFICATION_TYPE":"U","TLE_LINE2":"2 48354  53.0557 184.6907 0001736  49.5918 310.5222 15.06409719 55400","FILE":"3430750","LAUNCH_DATE":"2021-05-04","MEAN_MOTION_DOT":"-0.00001591","OBJECT_ID":"2021-038B","COUNTRY_CODE":"US","PERIAPSIS":"545.982","RCS_SIZE":"LARGE","ARG_OF_PERICENTER":"49.5918","REF_FRAME":"TEME","INCLINATION":"53.0557","OBJECT_NAME":"STARLINK-2674","DECAY_DATE":null,"OBJECT_TYPE":"PAYLOAD","PERIOD":"95.592"},{"MEAN_MOTION":"15.06412424","BSTAR":"0.00002512800000","MEAN_ELEMENT_THEORY":"SGP4","CENTER_NAME":"EARTH","APOAPSIS":"548.181","EPHEMERIS_TYPE":"0","ELEMENT_SET_NO":"999","TLE_LINE1":"1 48355U 21038C   22125.56157772  .00000093  00000-0  25128-4 0  9995","GP_ID":"202802994","SEMIMAJOR_AXIS":"6925.310","TLE_LINE2":"2 48355  53.0544 184.9965 0001452  55.2761 304.8364 15.06412424 55397","CLASSIFICATION_TYPE":"U","TIME_SYSTEM":"UTC","RA_OF_ASC_NODE":"184.9965","SITE":"AFETR","REV_AT_EPOCH":"5539","MEAN_ANOMALY":"304.8364","EPOCH":"2022-05-05T13:28:40.315008","MEAN_MOTION_DDOT":"0.0000000000000","NORAD_CAT_ID":"48355","ECCENTRICITY":"0.00014520","OBJECT_ID":"2021-038C","FILE":"3430750","LAUNCH_DATE":"2021-05-04","MEAN_MOTION_DOT":"0.00000093","DECAY_DATE":null,"OBJECT_TYPE":"PAYLOAD","PERIOD":"95.591","ARG_OF_PERICENTER":"55.2761","PERIAPSIS":"546.170","RCS_SIZE":"LARGE","COUNTRY_CODE":"US","OBJECT_NAME":"STARLINK-2635","INCLINATION":"53.0544","REF_FRAME":"TEME"},{"DECAY_DATE":null,"PERIOD":"95.592","OBJECT_TYPE":"PAYLOAD","ARG_OF_PERICENTER":"44.6890","COUNTRY_CODE":"US","RCS_SIZE":"LARGE","PERIAPSIS":"545.925","OBJECT_NAME":"STARLINK-2637","REF_FRAME":"TEME","INCLINATION":"53.0527","OBJECT_ID":"2021-038D","LAUNCH_DATE":"2021-05-04","FILE":"3430750","MEAN_MOTION_DOT":"0.00000602","CLASSIFICATION_TYPE":"U","TLE_LINE2":"2 48356  53.0527 183.5281 0001843  44.6890 315.4247 15.06404091 55449","TIME_SYSTEM":"UTC","SITE":"AFETR","REV_AT_EPOCH":"5544","RA_OF_ASC_NODE":"183.5281","MEAN_ANOMALY":"315.4247","MEAN_MOTION_DDOT":"0.0000000000000","EPOCH":"2022-05-05T21:21:04.547808","ECCENTRICITY":"0.00018430","NORAD_CAT_ID":"48356","MEAN_MOTION":"15.06404091","BSTAR":"0.00005932600000","MEAN_ELEMENT_THEORY":"SGP4","CENTER_NAME":"EARTH","ELEMENT_SET_NO":"999","TLE_LINE1":"1 48356U 21038D   22125.88963597  .00000602  00000-0  59326-4 0  9994","EPHEMERIS_TYPE":"0","APOAPSIS":"548.477","GP_ID":"202802746","SEMIMAJOR_AXIS":"6925.336"},{"DECAY_DATE":null,"PERIOD":"95.592","OBJECT_TYPE":"PAYLOAD","ARG_OF_PERICENTER":"63.9713","COUNTRY_CODE":"US","RCS_SIZE":"LARGE","PERIAPSIS":"545.864","OBJECT_NAME":"STARLINK-2636","REF_FRAME":"TEME","INCLINATION":"53.0550","OBJECT_ID":"2021-038E","FILE":"3430750","MEAN_MOTION_DOT":"-0.00001678","LAUNCH_DATE":"2021-05-04","CLASSIFICATION_TYPE":"U","TLE_LINE2":"2 48357  53.0550 183.5501 0001952  63.9713 296.1477 15.06399358 55449","TIME_SYSTEM":"UTC","SITE":"AFETR","REV_AT_EPOCH":"5544","RA_OF_ASC_NODE":"183.5501","MEAN_ANOMALY":"296.1477","MEAN_MOTION_DDOT":"0.0000000000000","EPOCH":"2022-05-05T21:15:46.059264","NORAD_CAT_ID":"48357","ECCENTRICITY":"0.00019520","MEAN_MOTION":"15.06399358","BSTAR":"-0.00009376800000","MEAN_ELEMENT_THEORY":"SGP4","CENTER_NAME":"EARTH","ELEMENT_SET_NO":"999","TLE_LINE1":"1 48357U 21038E   22125.88594976 -.00001678  00000-0 -93768-4 0  9990","EPHEMERIS_TYPE":"0","APOAPSIS":"548.567","GP_ID":"202803995","SEMIMAJOR_AXIS":"6925.351"},{"MEAN_MOTION_DDOT":"0.0000000000000","EPOCH":"2022-05-05T21:10:28.381152","NORAD_CAT_ID":"48358","ECCENTRICITY":"0.00022770","REV_AT_EPOCH":"5543","SITE":"AFETR","RA_OF_ASC_NODE":"183.5466","MEAN_ANOMALY":"321.1025","TLE_LINE2":"2 48358  53.0546 183.5466 0002277  39.0127 321.1025 15.06400995 55436","CLASSIFICATION_TYPE":"U","TIME_SYSTEM":"UTC","GP_ID":"202803738","SEMIMAJOR_AXIS":"6925.346","ELEMENT_SET_NO":"999","TLE_LINE1":"1 48358U 21038F   22125.88227293  .00001180  00000-0  98120-4 0  9999","EPHEMERIS_TYPE":"0","APOAPSIS":"548.787","MEAN_ELEMENT_THEORY":"SGP4","CENTER_NAME":"EARTH","MEAN_MOTION":"15.06400995","BSTAR":"0.00009812000000","OBJECT_NAME":"STARLINK-2624","REF_FRAME":"TEME","INCLINATION":"53.0546","ARG_OF_PERICENTER":"39.0127","COUNTRY_CODE":"US","RCS_SIZE":"LARGE","PERIAPSIS":"545.634","PERIOD":"95.592","OBJECT_TYPE":"PAYLOAD","DECAY_DATE":null,"LAUNCH_DATE":"2021-05-04","FILE":"3430750","MEAN_MOTION_DOT":"0.00001180","OBJECT_ID":"2021-038F"},{"OBJECT_ID":"2021-038G","LAUNCH_DATE":"2021-05-04","FILE":"3430750","MEAN_MOTION_DOT":"0.00004177","PERIOD":"95.591","OBJECT_TYPE":"PAYLOAD","DECAY_DATE":null,"REF_FRAME":"TEME","INCLINATION":"53.0518","OBJECT_NAME":"STARLINK-2628","COUNTRY_CODE":"US","PERIAPSIS":"545.955","RCS_SIZE":"LARGE","ARG_OF_PERICENTER":"54.1767","CENTER_NAME":"EARTH","MEAN_ELEMENT_THEORY":"SGP4","BSTAR":"0.00029901000000","MEAN_MOTION":"15.06418262","GP_ID":"202802496","SEMIMAJOR_AXIS":"6925.293","TLE_LINE1":"1 48359U 21038G   22125.87857197  .00004177  00000-0  29901-3 0  9990","ELEMENT_SET_NO":"999","APOAPSIS":"548.360","EPHEMERIS_TYPE":"0","TIME_SYSTEM":"UTC","TLE_LINE2":"2 48359  53.0518 183.5782 0001736  54.1767 305.9383 15.06418262 55437","CLASSIFICATION_TYPE":"U","ECCENTRICITY":"0.00017360","NORAD_CAT_ID":"48359","MEAN_MOTION_DDOT":"0.0000000000000","EPOCH":"2022-05-05T21:05:08.618208","MEAN_ANOMALY":"305.9383","REV_AT_EPOCH":"5543","SITE":"AFETR","RA_OF_ASC_NODE":"183.5782"},{"DECAY_DATE":null,"PERIOD":"95.592","OBJECT_TYPE":"PAYLOAD","RCS_SIZE":"LARGE","PERIAPSIS":"546.001","COUNTRY_CODE":"US","ARG_OF_PERICENTER":"49.3354","INCLINATION":"53.0536","REF_FRAME":"TEME","OBJECT_NAME":"STARLINK-2622","OBJECT_ID":"2021-038H","FILE":"3430750","LAUNCH_DATE":"2021-05-04","MEAN_MOTION_DOT":"-0.00000261","TIME_SYSTEM":"UTC","CLASSIFICATION_TYPE":"U","TLE_LINE2":"2 48360  53.0536 183.6034 0001736  49.3354 310.7786 15.06403284 55437","MEAN_ANOMALY":"310.7786","RA_OF_ASC_NODE":"183.6034","REV_AT_EPOCH":"5543","SITE":"AFETR","ECCENTRICITY":"0.00017360","NORAD_CAT_ID":"48360","EPOCH":"2022-05-05T20:59:50.036352","MEAN_MOTION_DDOT":"0.0000000000000","BSTAR":"0.00000140540000","MEAN_MOTION":"15.06403284","CENTER_NAME":"EARTH","MEAN_ELEMENT_THEORY":"SGP4","EPHEMERIS_TYPE":"0","APOAPSIS":"548.406","TLE_LINE1":"1 48360U 21038H   22125.87488468 -.00000261  00000-0  14054-5 0  9999","ELEMENT_SET_NO":"999","SEMIMAJOR_AXIS":"6925.338","GP_ID":"202803245"},{"RA_OF_ASC_NODE":"183.5929","SITE":"AFETR","REV_AT_EPOCH":"5543","MEAN_ANOMALY":"307.1459","EPOCH":"2022-05-05T20:54:32.305536","MEAN_MOTION_DDOT":"0.0000000000000","ECCENTRICITY":"0.00015780","NORAD_CAT_ID":"48361","CLASSIFICATION_TYPE":"U","TLE_LINE2":"2 48361  53.0522 183.5929 0001578  52.9674 307.1459 15.06393754 55431","TIME_SYSTEM":"UTC","APOAPSIS":"548.326","EPHEMERIS_TYPE":"0","TLE_LINE1":"1 48361U 21038J   22125.87120724 -.00000742  00000-0 -30893-4 0  9991","ELEMENT_SET_NO":"999","SEMIMAJOR_AXIS":"6925.368","GP_ID":"202803498","MEAN_MOTION":"15.06393754","BSTAR":"-0.00003089300000","MEAN_ELEMENT_THEORY":"SGP4","CENTER_NAME":"EARTH","ARG_OF_PERICENTER":"52.9674","RCS_SIZE":"LARGE","PERIAPSIS":"546.140","COUNTRY_CODE":"US","OBJECT_NAME":"STARLINK-2591","INCLINATION":"53.0522","REF_FRAME":"TEME","DECAY_DATE":null,"OBJECT_TYPE":"PAYLOAD","PERIOD":"95.593","MEAN_MOTION_DOT":"-0.00000742","FILE":"3430750","LAUNCH_DATE":"2021-05-04","OBJECT_ID":"2021-038J"},{"OBJECT_ID":"2021-038K","MEAN_MOTION_DOT":"0.00002938","FILE":"3430750","LAUNCH_DATE":"2021-05-04","DECAY_DATE":null,"PERIOD":"95.592","OBJECT_TYPE":"PAYLOAD","RCS_SIZE":"LARGE","PERIAPSIS":"545.732","COUNTRY_CODE":"US","ARG_OF_PERICENTER":"38.9907","INCLINATION":"53.0548","REF_FRAME":"TEME","OBJECT_NAME":"STARLINK-2578","BSTAR":"0.00021608000000","MEAN_MOTION":"15.06397636","CENTER_NAME":"EARTH","MEAN_ELEMENT_THEORY":"SGP4","APOAPSIS":"548.710","EPHEMERIS_TYPE":"0","ELEMENT_SET_NO":"999","TLE_LINE1":"1 48362U 21038K   22125.56432649  .00002938  00000-0  21608-3 0  9990","GP_ID":"202804237","SEMIMAJOR_AXIS":"6925.356","TIME_SYSTEM":"UTC","CLASSIFICATION_TYPE":"U","TLE_LINE2":"2 48362  53.0548 184.9945 0002150  38.9907 321.1237 15.06397636 55391","MEAN_ANOMALY":"321.1237","RA_OF_ASC_NODE":"184.9945","REV_AT_EPOCH":"5539","SITE":"AFETR","ECCENTRICITY":"0.00021500","NORAD_CAT_ID":"48362","EPOCH":"2022-05-05T13:32:37.808736","MEAN_MOTION_DDOT":"0.0000000000000"},{"OBJECT_ID":"2021-038L","MEAN_MOTION_DOT":"0.00002894","FILE":"3430750","LAUNCH_DATE":"2021-05-04","OBJECT_TYPE":"PAYLOAD","PERIOD":"95.592","DECAY_DATE":null,"REF_FRAME":"TEME","INCLINATION":"53.0549","OBJECT_NAME":"STARLINK-2626","COUNTRY_CODE":"US","PERIAPSIS":"546.078","RCS_SIZE":"LARGE","ARG_OF_PERICENTER":"56.7830","CENTER_NAME":"EARTH","MEAN_ELEMENT_THEORY":"SGP4","BSTAR":"0.00021313000000","MEAN_MOTION":"15.06397732","SEMIMAJOR_AXIS":"6925.356","GP_ID":"202802995","TLE_LINE1":"1 48363U 21038L   22125.58233689  .00002894  00000-0  21313-3 0  9990","ELEMENT_SET_NO":"999","APOAPSIS":"548.363","EPHEMERIS_TYPE":"0","TIME_SYSTEM":"UTC","TLE_LINE2":"2 48363  53.0549 179.9012 0001650  56.7830 303.3317 15.06397732 55465","CLASSIFICATION_TYPE":"U","ECCENTRICITY":"0.00016500","NORAD_CAT_ID":"48363","MEAN_MOTION_DDOT":"0.0000000000000","EPOCH":"2022-05-05T13:58:33.907296","MEAN_ANOMALY":"303.3317","REV_AT_EPOCH":"5546","SITE":"AFETR","RA_OF_ASC_NODE":"179.9012"}];
